GLOBALSTAR M063         
1 26081U 00008A   25316.28782657 -.00000051  00000+0  47032-3 0  9992
2 26081  51.9950  81.5218 0004118 226.8920 144.6363 11.86177258175158
GLOBALSTAR M062         
1 26082U 00008B   25316.17779449 -.00000020  00000+0  55868-3 0  9998
2 26082  51.9871  20.5815 0007373  71.1537 315.8560 12.43477556515032
GLOBALSTAR M060         
1 26083U 00008C   25316.31546860 -.00000107  00000+0 -15813-3 0  9997
2 26083  52.0045   1.1422 0003447  72.1991   7.9790 12.17667402170415
GLOBALSTAR M064         
1 26084U 00008D   25315.99023239 -.00000074  00000+0  13656-3 0  9996
2 26084  52.0000 179.3962 0001810  22.4332 337.6580 11.88538366184679
GLOBALSTAR M065         
1 31571U 07020A   25315.95663676 -.00000063  00000+0  22595-3 0  9995
2 31571  51.9864 136.5000 0008979 275.7932 248.8206 12.62013379852060
GLOBALSTAR M069         
1 31573U 07020C   25316.31122402 -.00000082  00000+0  96968-4 0  9992
2 31573  52.0000 145.9673 0002853  72.6055  98.9781 12.23463348852256
GLOBALSTAR M072         
1 31574U 07020D   25316.31731444 -.00000056  00000+0  38850-3 0  9991
2 31574  51.9949 317.6119 0000917 256.0850 205.7261 11.91653165849125
GLOBALSTAR M071         
1 31576U 07020F   25316.32951138 -.00000133  00000+0 -41744-3 0  9991
2 31576  52.0035 175.7112 0001916  65.7224 106.0961 12.18261615512998
